#aV2016  3  1  0  0  0.00000000     288 DD+AD WGS84 FIT  NGA
## 1886 172800.00000000   300.00000000 57448 0.0000000000000
+   30     1  2  3  5  6  7  8  9 10 11 12 13 14 15 16 17 18
+         19 20 21 22 23 24 25 26 27 28 29 30 31  0  0  0  0
+          0  0  0  0  0  0  0  0  0  0  0  0  0  0  0  0  0
+          0  0  0  0  0  0  0  0  0  0  0  0  0  0  0  0  0
+          0  0  0  0  0  0  0  0  0  0  0  0  0  0  0  0  0
++         2  2  2  2  2  2  2  2  2  2  2  2  2  2  2  2  2
++         2  2  2  2  2  2  2  2  2  2  2  2  2  0  0  0  0
++         0  0  0  0  0  0  0  0  0  0  0  0  0  0  0  0  0
++         0  0  0  0  0  0  0  0  0  0  0  0  0  0  0  0  0
++         0  0  0  0  0  0  0  0  0  0  0  0  0  0  0  0  0
%c cc cc ccc ccc cccc cccc cccc cccc ccccc ccccc ccccc ccccc
%c cc cc ccc ccc cccc cccc cccc cccc ccccc ccccc ccccc ccccc
%f  0.0000000  0.000000000  0.00000000000  0.000000000000000
%f  0.0000000  0.000000000  0.00000000000  0.000000000000000
%i    0    0    0    0      0      0      0      0         0
%i    0    0    0    0      0      0      0      0         0
/*      NGA, ST. LOUIS,MO.                                  
/*   EPHEMERIS COMPUTED FROM 2 DAYS OF DATA                 
/*   EPOCHA v2.4 SMOOTHER                                   
/*   G1762 IERS2010 SATAF SATAPC                            
*  2016  3  1 22 35  0.00000000
P  1     -2.995214 -15750.863965 -21428.452000     13.182807                    
V  1  25763.534095  -8308.677624   6339.876992      0.010443                    
P  2 -20169.926760  14810.028799   8679.240521    599.406708                    
V  2 -11082.677108    803.217985 -28932.886110     -0.002015                    
P  3  -9171.345661 -20654.719194 -13945.205447    -31.062873                    
V  3  14912.890900   9813.987698 -24353.426710     -0.045620                    
P  5 -10140.372419  11710.446664  21507.782826   -141.356901                    
V  5 -21174.851588 -17583.460858   -214.411299      0.033613                    
P  6 -25509.777261   5487.201644  -4932.747116    153.805252                    
V  6   5012.990081  -4621.548637 -31000.092476      0.059008                    
P  7 -16745.213838  -8371.982894  19120.913324    467.250838                    
V  7  22335.058269  -8439.002206  15589.394148     -0.017577                    
P  8   5910.793951 -25818.317722   1876.723386    -25.894238                    
V  8   2340.710789   2766.933427  31678.493882     -0.014123                    
P  9  -9638.705521 -17287.753751  17685.153186     81.385710                    
V  9   5646.068266 -21867.588418 -18288.878452      0.076126                    
P 10  22362.494932   7885.665208 -12012.707553     35.529315                    
V 10  10137.787522  11633.364715  26428.971828     -0.066207                    
P 11   3341.580964 -20636.246068 -16907.528354   -634.790827                    
V 11  17550.425904 -11341.310630  17953.583053     -0.017754                    
P 12   5187.075576  20078.083774 -16843.999826    370.655622                    
V 12 -16003.856847 -13651.425735 -21136.541972      0.015974                    
P 13 -12572.570194  21873.019939   8311.943730     -0.331418                    
V 13    958.361373 -10896.728284  29549.544285     -0.029072                    
P 14  15318.145772    240.027421 -21432.891226     -0.043243                    
V 14  -6650.719584  27012.641247  -4545.020560     -0.022253                    
P 15  -1455.025236  26230.209869  -2450.073103   -299.716167                    
V 15  -4368.843643   2484.032104  31093.689871     -0.017997                    
P 16  10843.378945  -9680.241298  22147.691924    -35.541372                    
V 16  20248.855560  19694.925846   -923.407996      0.030037                    
P 17 -14712.108162  -1686.383377 -21712.080074   -201.440207                    
V 17   6134.242547 -27658.875918  -2165.126521     -0.004725                    
P 18  20979.772973  16502.689855   -330.008861    489.098682                    
V 18  -1517.746299   3539.622614  30776.750619      0.039555                    
P 19 -16195.100014  10436.243025 -18676.439058   -525.067974                    
V 19   5289.960458 -22487.418134 -16985.046571     -0.002252                    
P 20   6534.454991  19780.116783  16291.331579    396.442285                    
V 20 -18627.107342 -10251.102531  19781.748964      0.025502                    
P 21  19820.580921   6177.769786  17461.581865   -512.941779                    
V 21 -18713.815557   9090.886463  18559.667121     -0.017506                    
P 22  11062.780706 -11508.393520 -21019.937014    388.610161                    
V 22  21233.467876  17235.678532   1559.102110     -0.063092                    
P 23  -2507.483627 -24491.229405   9550.256271   -162.625225                    
V 23   5365.156417 -11261.966070 -28417.462534     -0.018355                    
P 24  -3244.624527  16776.969179 -20337.315510    -13.257849                    
V 24 -24524.212015   8078.236327  10795.112207     -0.006020                    
P 25  15851.089371  20132.033597  -7467.567547   -126.480342                    
V 25  -8311.135381  -4541.462232 -30139.145665     -0.068536                    
P 26  18449.902929  -1866.064243  19033.002678   -275.910647                    
V 26  17617.761579  16572.560702 -15410.564850     -0.151426                    
P 27  11759.287892 -20722.724422  11548.834266     67.884931                    
V 27   -375.646671  14907.569360  27230.771492      0.036663                    
P 28 -21271.123885 -10820.248587 -11073.830850    506.137461                    
V 28  -9394.820110 -11800.837541  27950.042370      0.027132                    
P 29   6376.438989  20135.921118  16147.296678    655.172638                    
V 29  -6299.047331  19486.508223 -21791.972728      0.006174                    
P 30 -23814.206318  -1968.479320  11674.385778    102.246203                    
V 30  13599.859372  -6413.007461  26558.984763      0.040891                    
P 31  25839.739345  -6470.619159  -2459.186734    280.300143                    
V 31  -2416.979772   3018.660941 -31563.521121     -0.016761                    
EOF
